[{"OBJECT_NAME":"FLOCK 4BE-30","OBJECT_ID":"2024-149AH","EPOCH":"2026-03-14T05:36:22.302144","MEAN_MOTION":15.39028415,"ECCENTRICITY":0.00024248,"INCLINATION":97.384,"RA_OF_ASC_NODE":156.9314,"ARG_OF_PERICENTER":244.0221,"MEAN_ANOMALY":116.0775,"EPHEMERIS_TYPE":0,"CLASSIFICATION_TYPE":"U","NORAD_CAT_ID":60499,"ELEMENT_SET_NO":999,"REV_AT_EPOCH":8709,"BSTAR":0.0022425587,"MEAN_MOTION_DOT":0.00087481,"MEAN_MOTION_DDOT":0},{"OBJECT_NAME":"NUSAT-49 (KLARA DAN VON NEUMANN)","OBJECT_ID":"2024-149AJ","EPOCH":"2026-03-14T15:14:23.992224","MEAN_MOTION":15.30960231,"ECCENTRICITY":0.00011964,"INCLINATION":97.3812,"RA_OF_ASC_NODE":155.5505,"ARG_OF_PERICENTER":249.9311,"MEAN_ANOMALY":110.1802,"EPHEMERIS_TYPE":0,"CLASSIFICATION_TYPE":"U","NORAD_CAT_ID":60500,"ELEMENT_SET_NO":999,"REV_AT_EPOCH":8767,"BSTAR":0.00054496397,"MEAN_MOTION_DOT":0.00016243,"MEAN_MOTION_DDOT":0},{"OBJECT_NAME":"FLOCK 4BE-11","OBJECT_ID":"2024-149AK","EPOCH":"2026-03-14T04:52:58.195776","MEAN_MOTION":15.39530207,"ECCENTRICITY":0.00032144,"INCLINATION":97.374,"RA_OF_ASC_NODE":156.4697,"ARG_OF_PERICENTER":241.8828,"MEAN_ANOMALY":118.2093,"EPHEMERIS_TYPE":0,"CLASSIFICATION_TYPE":"U","NORAD_CAT_ID":60501,"ELEMENT_SET_NO":999,"REV_AT_EPOCH":8772,"BSTAR":0.000651546,"MEAN_MOTION_DOT":0.00025572,"MEAN_MOTION_DDOT":0},{"OBJECT_NAME":"FLOCK 4BE-33","OBJECT_ID":"2024-149AL","EPOCH":"2026-03-14T04:38:27.725280","MEAN_MOTION":15.67407028,"ECCENTRICITY":0.0007754,"INCLINATION":97.3668,"RA_OF_ASC_NODE":157.9173,"ARG_OF_PERICENTER":231.0996,"MEAN_ANOMALY":128.9574,"EPHEMERIS_TYPE":0,"CLASSIFICATION_TYPE":"U","NORAD_CAT_ID":60502,"ELEMENT_SET_NO":999,"REV_AT_EPOCH":8781,"BSTAR":0.0017120982,"MEAN_MOTION_DOT":0.00188838,"MEAN_MOTION_DDOT":0},{"OBJECT_NAME":"FLOCK 4BE-10","OBJECT_ID":"2024-149AM","EPOCH":"2026-03-14T11:26:39.292224","MEAN_MOTION":15.76341831,"ECCENTRICITY":0.00058765,"INCLINATION":97.373,"RA_OF_ASC_NODE":159.9472,"ARG_OF_PERICENTER":226.3234,"MEAN_ANOMALY":133.7545,"EPHEMERIS_TYPE":0,"CLASSIFICATION_TYPE":"U","NORAD_CAT_ID":60503,"ELEMENT_SET_NO":999,"REV_AT_EPOCH":8794,"BSTAR":0.0020271127,"MEAN_MOTION_DOT":0.00330523,"MEAN_MOTION_DDOT":0},{"OBJECT_NAME":"YAM-7","OBJECT_ID":"2024-149AN","EPOCH":"2026-03-14T14:55:39.845280","MEAN_MOTION":15.30403034,"ECCENTRICITY":0.00019701,"INCLINATION":97.3826,"RA_OF_ASC_NODE":154.3395,"ARG_OF_PERICENTER":265.3768,"MEAN_ANOMALY":94.7247,"EPHEMERIS_TYPE":0,"CLASSIFICATION_TYPE":"U","NORAD_CAT_ID":60504,"ELEMENT_SET_NO":999,"REV_AT_EPOCH":8758,"BSTAR":0.00038621012,"MEAN_MOTION_DOT":0.00011285,"MEAN_MOTION_DDOT":0},{"OBJECT_NAME":"FLOCK 4BE-24","OBJECT_ID":"2024-149AP","EPOCH":"2026-03-14T15:22:22.372608","MEAN_MOTION":15.39399905,"ECCENTRICITY":0.00032869,"INCLINATION":97.3756,"RA_OF_ASC_NODE":157.1553,"ARG_OF_PERICENTER":251.5228,"MEAN_ANOMALY":108.5661,"EPHEMERIS_TYPE":0,"CLASSIFICATION_TYPE":"U","NORAD_CAT_ID":60505,"ELEMENT_SET_NO":999,"REV_AT_EPOCH":8780,"BSTAR":0.00071778422,"MEAN_MOTION_DOT":0.00028069,"MEAN_MOTION_DDOT":0},{"OBJECT_NAME":"LUR-1","OBJECT_ID":"2024-149AQ","EPOCH":"2026-03-14T15:20:51.308736","MEAN_MOTION":15.28751277,"ECCENTRICITY":0.00026301,"INCLINATION":97.379,"RA_OF_ASC_NODE":153.2276,"ARG_OF_PERICENTER":283.1913,"MEAN_ANOMALY":76.9034,"EPHEMERIS_TYPE":0,"CLASSIFICATION_TYPE":"U","NORAD_CAT_ID":60506,"ELEMENT_SET_NO":999,"REV_AT_EPOCH":8752,"BSTAR":0.00038898152,"MEAN_MOTION_DOT":0.00010802,"MEAN_MOTION_DDOT":0},{"OBJECT_NAME":"TANAGER-1","OBJECT_ID":"2024-149AR","EPOCH":"2026-03-14T07:06:12.938976","MEAN_MOTION":15.43551158,"ECCENTRICITY":0.00080627,"INCLINATION":97.3772,"RA_OF_ASC_NODE":166.7415,"ARG_OF_PERICENTER":227.8124,"MEAN_ANOMALY":132.244,"EPHEMERIS_TYPE":0,"CLASSIFICATION_TYPE":"U","NORAD_CAT_ID":60507,"ELEMENT_SET_NO":999,"REV_AT_EPOCH":8839,"BSTAR":0.00053127558,"MEAN_MOTION_DOT":0.00023831,"MEAN_MOTION_DDOT":0},{"OBJECT_NAME":"EAGLEEYE","OBJECT_ID":"2024-149AS","EPOCH":"2026-03-14T04:58:08.797728","MEAN_MOTION":15.57364567,"ECCENTRICITY":0.00032754,"INCLINATION":97.3768,"RA_OF_ASC_NODE":162.3421,"ARG_OF_PERICENTER":238.3675,"MEAN_ANOMALY":121.7261,"EPHEMERIS_TYPE":0,"CLASSIFICATION_TYPE":"U","NORAD_CAT_ID":60508,"ELEMENT_SET_NO":999,"REV_AT_EPOCH":8809,"BSTAR":0.0010403882,"MEAN_MOTION_DOT":0.00076616,"MEAN_MOTION_DDOT":0},{"OBJECT_NAME":"FLOCK 4BE-29","OBJECT_ID":"2024-149AT","EPOCH":"2026-03-14T05:00:01.276704","MEAN_MOTION":15.4068457,"ECCENTRICITY":0.00019006,"INCLINATION":97.3838,"RA_OF_ASC_NODE":157.8821,"ARG_OF_PERICENTER":265.7968,"MEAN_ANOMALY":94.3061,"EPHEMERIS_TYPE":0,"CLASSIFICATION_TYPE":"U","NORAD_CAT_ID":60509,"ELEMENT_SET_NO":999,"REV_AT_EPOCH":8777,"BSTAR":0.00063444917,"MEAN_MOTION_DOT":0.0002586,"MEAN_MOTION_DDOT":0},{"OBJECT_NAME":"TRANSPORTER-11 OBJECT AU","OBJECT_ID":"2024-149AU","EPOCH":"2026-03-14T15:23:27.547584","MEAN_MOTION":15.37424135,"ECCENTRICITY":0.00024881,"INCLINATION":97.3764,"RA_OF_ASC_NODE":156.7929,"ARG_OF_PERICENTER":259.4893,"MEAN_ANOMALY":100.6072,"EPHEMERIS_TYPE":0,"CLASSIFICATION_TYPE":"U","NORAD_CAT_ID":60510,"ELEMENT_SET_NO":999,"REV_AT_EPOCH":8777,"BSTAR":0.00060672526,"MEAN_MOTION_DOT":0.00022219,"MEAN_MOTION_DDOT":0},{"OBJECT_NAME":"FLOCK 4BE-2","OBJECT_ID":"2024-149AV","EPOCH":"2026-03-14T14:54:57.552480","MEAN_MOTION":15.43727111,"ECCENTRICITY":0.00030926,"INCLINATION":97.3846,"RA_OF_ASC_NODE":158.9007,"ARG_OF_PERICENTER":249.0931,"MEAN_ANOMALY":110.9986,"EPHEMERIS_TYPE":0,"CLASSIFICATION_TYPE":"U","NORAD_CAT_ID":60511,"ELEMENT_SET_NO":999,"REV_AT_EPOCH":8787,"BSTAR":0.0013439837,"MEAN_MOTION_DOT":0.0006101,"MEAN_MOTION_DDOT":0},{"OBJECT_NAME":"FLOCK 4BE-13","OBJECT_ID":"2024-149AW","EPOCH":"2026-03-14T10:52:11.894880","MEAN_MOTION":15.39037071,"ECCENTRICITY":0.00034657,"INCLINATION":97.3753,"RA_OF_ASC_NODE":157.0652,"ARG_OF_PERICENTER":242.8262,"MEAN_ANOMALY":117.2631,"EPHEMERIS_TYPE":0,"CLASSIFICATION_TYPE":"U","NORAD_CAT_ID":60512,"ELEMENT_SET_NO":999,"REV_AT_EPOCH":8778,"BSTAR":0.0005627046,"MEAN_MOTION_DOT":0.0002171,"MEAN_MOTION_DDOT":0},{"OBJECT_NAME":"FLOCK 4BE-27","OBJECT_ID":"2024-149AX","EPOCH":"2026-03-14T10:54:00.511776","MEAN_MOTION":15.3270545,"ECCENTRICITY":0.00026315,"INCLINATION":97.3866,"RA_OF_ASC_NODE":155.3713,"ARG_OF_PERICENTER":279.8747,"MEAN_ANOMALY":80.2198,"EPHEMERIS_TYPE":0,"CLASSIFICATION_TYPE":"U","NORAD_CAT_ID":60513,"ELEMENT_SET_NO":999,"REV_AT_EPOCH":8762,"BSTAR":0.00038965536,"MEAN_MOTION_DOT":0.00012236,"MEAN_MOTION_DDOT":0},{"OBJECT_NAME":"FLOCK 4BE-9","OBJECT_ID":"2024-149AY","EPOCH":"2026-03-14T04:22:01.525440","MEAN_MOTION":15.3776777,"ECCENTRICITY":0.00016873,"INCLINATION":97.3828,"RA_OF_ASC_NODE":156.7368,"ARG_OF_PERICENTER":262.0611,"MEAN_ANOMALY":98.0442,"EPHEMERIS_TYPE":0,"CLASSIFICATION_TYPE":"U","NORAD_CAT_ID":60514,"ELEMENT_SET_NO":999,"REV_AT_EPOCH":8770,"BSTAR":0.00057316807,"MEAN_MOTION_DOT":0.00021216,"MEAN_MOTION_DDOT":0},{"OBJECT_NAME":"FLOCK 4BE-8","OBJECT_ID":"2024-149AZ","EPOCH":"2026-03-14T11:26:28.876704","MEAN_MOTION":15.83044444,"ECCENTRICITY":0.00055785,"INCLINATION":97.3654,"RA_OF_ASC_NODE":160.6159,"ARG_OF_PERICENTER":263.0756,"MEAN_ANOMALY":96.9878,"EPHEMERIS_TYPE":0,"CLASSIFICATION_TYPE":"U","NORAD_CAT_ID":60515,"ELEMENT_SET_NO":999,"REV_AT_EPOCH":8801,"BSTAR":0.0022504216,"MEAN_MOTION_DOT":0.00506384,"MEAN_MOTION_DDOT":0},{"OBJECT_NAME":"FLOCK 4BE-6","OBJECT_ID":"2024-149BA","EPOCH":"2026-03-14T11:15:14.789088","MEAN_MOTION":15.36798546,"ECCENTRICITY":0.0002397,"INCLINATION":97.3823,"RA_OF_ASC_NODE":156.5433,"ARG_OF_PERICENTER":263.3336,"MEAN_ANOMALY":96.7636,"EPHEMERIS_TYPE":0,"CLASSIFICATION_TYPE":"U","NORAD_CAT_ID":60516,"ELEMENT_SET_NO":999,"REV_AT_EPOCH":8771,"BSTAR":0.00052066056,"MEAN_MOTION_DOT":0.00018666,"MEAN_MOTION_DDOT":0},{"OBJECT_NAME":"FLOCK 4BE-14","OBJECT_ID":"2024-149BB","EPOCH":"2026-03-14T04:53:41.235072","MEAN_MOTION":15.37866159,"ECCENTRICITY":0.0003336,"INCLINATION":97.3734,"RA_OF_ASC_NODE":156.3511,"ARG_OF_PERICENTER":265.4151,"MEAN_ANOMALY":94.6713,"EPHEMERIS_TYPE":0,"CLASSIFICATION_TYPE":"U","NORAD_CAT_ID":60517,"ELEMENT_SET_NO":999,"REV_AT_EPOCH":8771,"BSTAR":0.00056257568,"MEAN_MOTION_DOT":0.00020891,"MEAN_MOTION_DDOT":0},{"OBJECT_NAME":"FLOCK 4BE-1","OBJECT_ID":"2024-149BC","EPOCH":"2026-03-14T15:16:59.994336","MEAN_MOTION":15.39204291,"ECCENTRICITY":0.00033658,"INCLINATION":97.3813,"RA_OF_ASC_NODE":157.7448,"ARG_OF_PERICENTER":259.6731,"MEAN_ANOMALY":100.4135,"EPHEMERIS_TYPE":0,"CLASSIFICATION_TYPE":"U","NORAD_CAT_ID":60518,"ELEMENT_SET_NO":999,"REV_AT_EPOCH":8781,"BSTAR":0.00071243094,"MEAN_MOTION_DOT":0.0002768,"MEAN_MOTION_DDOT":0},{"OBJECT_NAME":"FLOCK 4BE-28","OBJECT_ID":"2024-149BD","EPOCH":"2026-03-14T11:04:52.553568","MEAN_MOTION":15.41257841,"ECCENTRICITY":0.00034512,"INCLINATION":97.3772,"RA_OF_ASC_NODE":158.0163,"ARG_OF_PERICENTER":263.1562,"MEAN_ANOMALY":96.9292,"EPHEMERIS_TYPE":0,"CLASSIFICATION_TYPE":"U","NORAD_CAT_ID":60519,"ELEMENT_SET_NO":999,"REV_AT_EPOCH":8783,"BSTAR":0.00064171361,"MEAN_MOTION_DOT":0.00026664,"MEAN_MOTION_DDOT":0},{"OBJECT_NAME":"IPERDRONE.0","OBJECT_ID":"2024-149BE","EPOCH":"2026-03-14T05:16:37.700256","MEAN_MOTION":15.55230054,"ECCENTRICITY":0.00033845,"INCLINATION":97.3813,"RA_OF_ASC_NODE":162.6206,"ARG_OF_PERICENTER":218.2627,"MEAN_ANOMALY":141.8388,"EPHEMERIS_TYPE":0,"CLASSIFICATION_TYPE":"U","NORAD_CAT_ID":60520,"ELEMENT_SET_NO":999,"REV_AT_EPOCH":8810,"BSTAR":0.00096607919,"MEAN_MOTION_DOT":0.00065661,"MEAN_MOTION_DDOT":0},{"OBJECT_NAME":"TRANSPORTER-11 OBJECT BF","OBJECT_ID":"2024-149BF","EPOCH":"2026-03-14T04:44:04.252416","MEAN_MOTION":15.60768015,"ECCENTRICITY":0.0003692,"INCLINATION":97.3818,"RA_OF_ASC_NODE":163.849,"ARG_OF_PERICENTER":223.4286,"MEAN_ANOMALY":136.6681,"EPHEMERIS_TYPE":0,"CLASSIFICATION_TYPE":"U","NORAD_CAT_ID":60521,"ELEMENT_SET_NO":999,"REV_AT_EPOCH":8817,"BSTAR":0.0010881712,"MEAN_MOTION_DOT":0.00091277,"MEAN_MOTION_DDOT":0}]
